NOAA 1 [-]              
1 04793U 70106A   22240.43291329 -.00000023  00000+0  12691-3 0  9997
2 04793 101.5515 302.4145 0031752 181.5130 193.5589 12.54007050367098
NOAA 2 (ITOS-D) [-]     
1 06235U 72082A   22239.91099178 -.00000033  00000+0  86153-4 0  9990
2 06235 101.9588 222.6034 0003786 303.6120 109.3850 12.53150719280929
NOAA 3 [-]              
1 06920U 73086A   22239.92619557 -.00000037  00000+0  62713-4 0  9996
2 06920 102.2127 221.6863 0006451 155.3662 260.6288 12.40347848209651
NOAA 4 [-]              
1 07529U 74089A   22240.19986147 -.00000035  00000+0  67695-4 0  9991
2 07529 101.9192 220.0614 0008952 329.7277  41.2021 12.53159662185772
NOAA 5 [-]              
1 09057U 76077A   22240.50558524 -.00000021  00000+0  18144-3 0  9996
2 09057 102.1043 207.7419 0010178   8.5868 114.6346 12.37773732 82889
TIROS N [-]             
1 11060U 78096A   22239.87629741  .00000063  00000+0  51297-4 0  9996
2 11060  98.6299 291.7068 0009565 300.8241  59.1993 14.18407529481739
NOAA 6 [-]              
1 11416U 79057A   22239.65407335  .00000100  00000+0  52012-4 0  9996
2 11416  98.6647 250.6210 0011278  52.9774 307.2440 14.33788360251724
NOAA 7 [-]              
1 12553U 81059A   22239.88365764  .00000007  00000+0  26063-4 0  9991
2 12553  98.9937 285.1677 0010452 273.0341  86.9637 14.17340964127919
NOAA 8 [-]              
1 13923U 83022A   22240.48504006  .00000044  00000+0  34965-4 0  9998
2 13923  98.6915 230.7628 0015194   3.4641 356.6643 14.28825724 52951
NOAA 9 [-]              
1 15427U 84123A   22240.52374117  .00000030  00000+0  38316-4 0  9994
2 15427  99.0518 214.0611 0014294 324.9017 143.1462 14.16217796947043
NOAA 10 [-]             
1 16969U 86073A   22240.55084764  .00000042  00000+0  34244-4 0  9990
2 16969  98.5732 225.3949 0013388 100.0797   9.4048 14.28215830871384
NOAA 11 [-]             
1 19531U 88089A   22239.88647483 -.00000009  00000+0  16124-4 0  9995
2 19531  98.4296 225.0604 0010706 338.9309  21.1423 14.15319109750927
NOAA 12 [-]             
1 21263U 91032A   22239.92150931  .00000027  00000+0  28965-4 0  9999
2 21263  98.5173 237.7490 0014602 127.3049 232.9465 14.26006309626916
NOAA 13 [-]             
1 22739U 93050A   22239.90258894  .00000019  00000+0  32298-4 0  9990
2 22739  98.5107 216.1601 0010281 133.7281 226.4745 14.12857030497145
NOAA 14 [-]             
1 23455U 94089A   22239.87206076  .00000018  00000+0  30782-4 0  9995
2 23455  98.4455 262.7053 0010567 116.2744 243.9517 14.14206186426809
NOAA 15 [B]             
1 25338U 98030A   22240.40258408  .00000107  00000+0  62757-4 0  9990
2 25338  98.6407 268.9843 0011550  88.7356 271.5147 14.26165088263522
NOAA 16 [-]             
1 26536U 00055A   22239.82872433  .00000028  00000+0  37465-4 0  9995
2 26536  98.6309 296.2486 0009791 327.1949  32.8615 14.13339886427438
NOAA 17 [-]             
1 27453U 02032A   22240.18617705  .00000042  00000+0  36740-4 0  9992
2 27453  98.6749 184.6226 0012942  65.4481 294.8046 14.25136371 49088
NOAA 18 [B]             
1 28654U 05018A   22240.37486712  .00000112  00000+0  84037-4 0  9996
2 28654  98.9448 310.7395 0015213 126.4527 233.8049 14.12768767890225
NOAA 19 [+]             
1 33591U 09005A   22240.52593194  .00000142  00000+0  10154-3 0  9993
2 33591  99.1435 276.1606 0013627 349.9691  10.1206 14.12602834698624
SUOMI NPP [+]           
1 37849U 11061A   22240.54183167  .00000041  00000+0  40202-4 0  9991
2 37849  98.7342 178.1016 0001256  83.4107 101.0299 14.19539954561416
NOAA 20 [+]             
1 43013U 17073A   22240.54022466  .00000012  00000+0  26460-4 0  9992
2 43013  98.7181 177.9749 0000907 112.6676 247.4596 14.19540061247456
